{"type": "FeatureCollection", "features": [ {"type": "Feature", "properties": {"norad_id": 29892, "name": "FENGYUN 1C DEB", "group": "fengyun-1c-debris", "lat": -46.18751905368851, "lon": -47.78798186853661, "alt_km": 700.1456316102731, "timestamp": "2025-12-19T22:41:52.663998+00:00", "meta": {"OBJECT_NAME": "FENGYUN 1C DEB", "OBJECT_ID": "1999-025GN", "EPOCH": "2025-12-19T09:59:30.823872", "MEAN_MOTION": 14.32307798, "ECCENTRICITY": 0.0191903, "INCLINATION": 99.1801, "RA_OF_ASC_NODE": 141.3556, "ARG_OF_PERICENTER": 278.0318, "MEAN_ANOMALY": 102.1867, "EPHEMERIS_TYPE": 0, "CLASSIFICATION_TYPE": "U", "NORAD_CAT_ID": 29892, "ELEMENT_SET_NO": 999, "REV_AT_EPOCH": 96745, "BSTAR": 0.0023589, "MEAN_MOTION_DOT": 7.76e-05, "MEAN_MOTION_DDOT": 0}, "tle": {"line1": "1 29892U 99025GN  25353.41632898  .00007760  00000+0  23589-2 0  9992", "line2": "2 29892  99.1801 141.3556 0191903 278.0318 102.1867 14.32307798967457"}}, "geometry": {"type": "Point", "coordinates": [-47.78798186853661, -46.18751905368851]}}, {"type": "Feature", "properties": {"norad_id": 29893, "name": "FENGYUN 1C DEB", "group": "fengyun-1c-debris", "lat": 60.688098667119846, "lon": 73.77114184451275, "alt_km": 918.5626952521643, "timestamp": "2025-12-19T22:41:52.664008+00:00", "meta": {"OBJECT_NAME": "FENGYUN 1C DEB", "OBJECT_ID": "1999-025GP", "EPOCH": "2025-12-19T12:01:52.448736", "MEAN_MOTION": 13.79464498, "ECCENTRICITY": 0.0173875, "INCLINATION": 98.5533, "RA_OF_ASC_NODE": 88.9175, "ARG_OF_PERICENTER": 135.1949, "MEAN_ANOMALY": 242.6487, "EPHEMERIS_TYPE": 0, "CLASSIFICATION_TYPE": "U", "NORAD_CAT_ID": 29893, "ELEMENT_SET_NO": 999, "REV_AT_EPOCH": 95233, "BSTAR": 0.00015289, "MEAN_MOTION_DOT": 1.39e-06, "MEAN_MOTION_DDOT": 0}, "tle": {"line1": "1 29893U 99025GP  25353.50130149  .00000139  00000+0  15289-3 0  9997", "line2": "2 29893  98.5533  88.9175 0173875 135.1949 242.6487 13.79464498952337"}}, "geometry": {"type": "Point", "coordinates": [73.77114184451275, 60.688098667119846]}}, {"type": "Feature", "properties": {"norad_id": 29894, "name": "FENGYUN 1C DEB", "group": "fengyun-1c-debris", "lat": 45.48594748473104, "lon": -121.91791485335641, "alt_km": 991.84620059809, "timestamp": "2025-12-19T22:41:52.664019+00:00", "meta": {"OBJECT_NAME": "FENGYUN 1C DEB", "OBJECT_ID": "1999-025GQ", "EPOCH": "2025-12-19T09:59:34.990080", "MEAN_MOTION": 13.80980278, "ECCENTRICITY": 0.0168176, "INCLINATION": 99.4852, "RA_OF_ASC_NODE": 47.7604, "ARG_OF_PERICENTER": 27.4066, "MEAN_ANOMALY": 353.9862, "EPHEMERIS_TYPE": 0, "CLASSIFICATION_TYPE": "U", "NORAD_CAT_ID": 29894, "ELEMENT_SET_NO": 999, "REV_AT_EPOCH": 95169, "BSTAR": 0.00043706, "MEAN_MOTION_DOT": 4.68e-06, "MEAN_MOTION_DDOT": 0}, "tle": {"line1": "1 29894U 99025GQ  25353.41637720  .00000468  00000+0  43706-3 0  9995", "line2": "2 29894  99.4852  47.7604 0168176  27.4066 353.9862 13.80980278951695"}}, "geometry": {"type": "Point", "coordinates": [-121.91791485335641, 45.48594748473104]}}, {"type": "Feature", "properties": {"norad_id": 29895, "name": "FENGYUN 1C DEB", "group": "fengyun-1c-debris", "lat": -35.53620804808109, "lon": -84.11991024577102, "alt_km": 932.1395572570163, "timestamp": "2025-12-19T22:41:52.664030+00:00", "meta": {"OBJECT_NAME": "FENGYUN 1C DEB", "OBJECT_ID": "1999-025GR", "EPOCH": "2025-12-19T06:27:11.003040", "MEAN_MOTION": 14.08294223, "ECCENTRICITY": 0.0299532, "INCLINATION": 99.8852, "RA_OF_ASC_NODE": 102.2925, "ARG_OF_PERICENTER": 325.802, "MEAN_ANOMALY": 63.7413, "EPHEMERIS_TYPE": 0, "CLASSIFICATION_TYPE": "U", "NORAD_CAT_ID": 29895, "ELEMENT_SET_NO": 999, "REV_AT_EPOCH": 95616, "BSTAR": 0.0014487, "MEAN_MOTION_DOT": 3.685e-05, "MEAN_MOTION_DDOT": 0}, "tle": {"line1": "1 29895U 99025GR  25353.26887735  .00003685  00000+0  14487-2 0  9999", "line2": "2 29895  99.8852 102.2925 0299532 325.8020  63.7413 14.08294223956163"}}, "geometry": {"type": "Point", "coordinates": [-84.11991024577102, -35.53620804808109]}}, {"type": "Feature", "properties": {"norad_id": 29896, "name": "FENGYUN 1C DEB", "group": "fengyun-1c-debris", "lat": -72.76869213795749, "lon": 33.103949480552004, "alt_km": 1199.1765753199506, "timestamp": "2025-12-19T22:41:52.664040+00:00", "meta": {"OBJECT_NAME": "FENGYUN 1C DEB", "OBJECT_ID": "1999-025GS", "EPOCH": "2025-12-19T06:14:46.808736", "MEAN_MOTION": 13.65375237, "ECCENTRICITY": 0.0239964, "INCLINATION": 99.4225, "RA_OF_ASC_NODE": 244.8083, "ARG_OF_PERICENTER": 85.1485, "MEAN_ANOMALY": 42.3134, "EPHEMERIS_TYPE": 0, "CLASSIFICATION_TYPE": "U", "NORAD_CAT_ID": 29896, "ELEMENT_SET_NO": 999, "REV_AT_EPOCH": 94131, "BSTAR": 0.00057129, "MEAN_MOTION_DOT": 5.25e-06, "MEAN_MOTION_DDOT": 0}, "tle": {"line1": "1 29896U 99025GS  25353.26026399  .00000525  00000+0  57129-3 0  9992", "line2": "2 29896  99.4225 244.8083 0239964  85.1485  42.3134 13.65375237941317"}}, "geometry": {"type": "Point", "coordinates": [33.103949480552004, -72.76869213795749]}}, {"type": "Feature", "properties": {"norad_id": 29897, "name": "FENGYUN 1C DEB", "group": "fengyun-1c-debris", "lat": -38.34520647478183, "lon": -135.75530602705197, "alt_km": 1256.5444278089171, "timestamp": "2025-12-19T22:41:52.664051+00:00", "meta": {"OBJECT_NAME": "FENGYUN 1C DEB", "OBJECT_ID": "1999-025GT", "EPOCH": "2025-12-17T14:25:33.441600", "MEAN_MOTION": 13.57200283, "ECCENTRICITY": 0.02966784, "INCLINATION": 98.6298, "RA_OF_ASC_NODE": 215.2843, "ARG_OF_PERICENTER": 126.0243, "MEAN_ANOMALY": 266.6756, "EPHEMERIS_TYPE": 0, "CLASSIFICATION_TYPE": "U", "NORAD_CAT_ID": 29897, "ELEMENT_SET_NO": 999, "REV_AT_EPOCH": 93006, "BSTAR": 0.0017231343, "MEAN_MOTION_DOT": 1.601e-05, "MEAN_MOTION_DDOT": 0}, "tle": {"line1": "1 29897U 99025GT  25351.60108150  .00001601  00000+0  17231-2 0  9990", "line2": "2 29897  98.6298 215.2843 0296678 126.0243 266.6756 13.57200283930067"}}, "geometry": {"type": "Point", "coordinates": [-135.75530602705197, -38.34520647478183]}}, {"type": "Feature", "properties": {"norad_id": 29898, "name": "FENGYUN 1C DEB", "group": "fengyun-1c-debris", "lat": -12.08945880615909, "lon": -12.949211671810367, "alt_km": 1317.5374233408766, "timestamp": "2025-12-19T22:41:52.664061+00:00", "meta": {"OBJECT_NAME": "FENGYUN 1C DEB", "OBJECT_ID": "1999-025GU", "EPOCH": "2025-12-19T18:21:34.194240", "MEAN_MOTION": 13.70345516, "ECCENTRICITY": 0.0427086, "INCLINATION": 98.2224, "RA_OF_ASC_NODE": 345.1209, "ARG_OF_PERICENTER": 170.3105, "MEAN_ANOMALY": 6.1228, "EPHEMERIS_TYPE": 0, "CLASSIFICATION_TYPE": "U", "NORAD_CAT_ID": 29898, "ELEMENT_SET_NO": 999, "REV_AT_EPOCH": 93257, "BSTAR": 0.0012065, "MEAN_MOTION_DOT": 2.001e-05, "MEAN_MOTION_DDOT": 0}, "tle": {"line1": "1 29898U 99025GU  25353.76497910  .00002001  00000+0  12065-2 0  9990", "line2": "2 29898  98.2224 345.1209 0427086 170.3105   6.1228 13.70345516932573"}}, "geometry": {"type": "Point", "coordinates": [-12.949211671810367, -12.08945880615909]}}, {"type": "Feature", "properties": {"norad_id": 29899, "name": "FENGYUN 1C DEB", "group": "fengyun-1c-debris", "lat": -77.37075484164563, "lon": -74.46405411220944, "alt_km": 1374.116535194601, "timestamp": "2025-12-19T22:41:52.664071+00:00", "meta": {"OBJECT_NAME": "FENGYUN 1C DEB", "OBJECT_ID": "1999-025GV", "EPOCH": "2025-12-19T16:01:21.320832", "MEAN_MOTION": 13.37494433, "ECCENTRICITY": 0.0353484, "INCLINATION": 98.6619, "RA_OF_ASC_NODE": 148.1661, "ARG_OF_PERICENTER": 61.6, "MEAN_ANOMALY": 302.0286, "EPHEMERIS_TYPE": 0, "CLASSIFICATION_TYPE": "U", "NORAD_CAT_ID": 29899, "ELEMENT_SET_NO": 999, "REV_AT_EPOCH": 92177, "BSTAR": 0.00015479, "MEAN_MOTION_DOT": 8.4e-07, "MEAN_MOTION_DDOT": 0}, "tle": {"line1": "1 29899U 99025GV  25353.66760788  .00000084  00000+0  15479-3 0  9998", "line2": "2 29899  98.6619 148.1661 0353484  61.6000 302.0286 13.37494433921773"}}, "geometry": {"type": "Point", "coordinates": [-74.46405411220944, -77.37075484164563]}}, {"type": "Feature", "properties": {"norad_id": 29901, "name": "FENGYUN 1C DEB", "group": "fengyun-1c-debris", "lat": -13.652137637055114, "lon": 165.876873210981, "alt_km": 1074.0194794803829, "timestamp": "2025-12-19T22:41:52.664082+00:00", "meta": {"OBJECT_NAME": "FENGYUN 1C DEB", "OBJECT_ID": "1999-025GX", "EPOCH": "2025-12-19T17:30:56.162016", "MEAN_MOTION": 13.33257672, "ECCENTRICITY": 0.0379177, "INCLINATION": 98.7446, "RA_OF_ASC_NODE": 163.5498, "ARG_OF_PERICENTER": 267.8727, "MEAN_ANOMALY": 118.3078, "EPHEMERIS_TYPE": 0, "CLASSIFICATION_TYPE": "U", "NORAD_CAT_ID": 29901, "ELEMENT_SET_NO": 999, "REV_AT_EPOCH": 92012, "BSTAR": 0.00034166, "MEAN_MOTION_DOT": 2.13e-06, "MEAN_MOTION_DDOT": 0}, "tle": {"line1": "1 29901U 99025GX  25353.72981669  .00000213  00000+0  34166-3 0  9990", "line2": "2 29901  98.7446 163.5498 0379177 267.8727 118.3078 13.33257672920121"}}, "geometry": {"type": "Point", "coordinates": [165.876873210981, -13.652137637055114]}}, {"type": "Feature", "properties": {"norad_id": 29904, "name": "FENGYUN 1C DEB", "group": "fengyun-1c-debris", "lat": -14.39497766018236, "lon": -150.06466496694267, "alt_km": 777.8875082816021, "timestamp": "2025-12-19T22:41:52.664092+00:00", "meta": {"OBJECT_NAME": "FENGYUN 1C DEB", "OBJECT_ID": "1999-025HA", "EPOCH": "2025-12-19T08:28:51.127392", "MEAN_MOTION": 14.44503422, "ECCENTRICITY": 0.0207529, "INCLINATION": 99.0411, "RA_OF_ASC_NODE": 31.6474, "ARG_OF_PERICENTER": 298.9456, "MEAN_ANOMALY": 59.1063, "EPHEMERIS_TYPE": 0, "CLASSIFICATION_TYPE": "U", "NORAD_CAT_ID": 29904, "ELEMENT_SET_NO": 999, "REV_AT_EPOCH": 99159, "BSTAR": 0.00031146, "MEAN_MOTION_DOT": 1.337e-05, "MEAN_MOTION_DDOT": 0}, "tle": {"line1": "1 29904U 99025HA  25353.35336953  .00001337  00000+0  31146-3 0  9995", "line2": "2 29904  99.0411  31.6474 0207529 298.9456  59.1063 14.44503422991599"}}, "geometry": {"type": "Point", "coordinates": [-150.06466496694267, -14.39497766018236]}}]}